{
  "norad_id": 65327,
  "name": "STARLINK-34880",
  "history": [
    {
      "epoch": "2026-03-28T19:38:29.866272",
      "apogee_km": 476.14731778716214,
      "perigee_km": 474.22427541043635,
      "latitude_deg": -29.97122219324198,
      "longitude_deg": 71.26651807990856,
      "semi_major_axis_km": 6853.322796598799,
      "eccentricity": 0.0001403,
      "inclination_deg": 53.1605,
      "raan_deg": 118.0257,
      "arg_perigee_deg": 90.2388,
      "mean_anomaly_deg": 269.8773,
      "mean_motion_rev_day": 15.30209804
    }
  ]
}