{"fetched_at":"2026-03-29T16:36:15Z","count":15609,"tles":[{"name":"STARLINK-34880","line1":"1 65327U 25189E   26087.81840123  .00024196  00000+0  82614-3 0  9993","line2":"2 65327  53.1605 118.0257 0001403  90.2388 269.8773 15.30209804 34031","category":"Starlink"}]}